WORLDVIEW-1 (WV-1)      
1 32060U 07041A   26179.91121633  .00005332  00000+0  22050-3 0  9998
2 32060  97.3890 299.4873 0001183 331.1223  28.9949 15.24391970 44661
WORLDVIEW-2 (WV-2)      
1 35946U 09055A   26179.92383107  .00000108  00000+0  50227-4 0  9992
2 35946  98.4764 253.2124 0004457 171.8520 188.2741 14.37902569877335
YAOGAN-10               
1 36834U 10038A   26179.99931137  .00000818  00000+0  10136-3 0  9993
2 36834  97.8973 203.3090 0001663  85.5334 303.7890 14.85381507858968
VNREDSAT 1              
1 39160U 13021B   26179.97440315  .00000277  00000+0  60326-4 0  9990
2 39160  97.9081 232.9381 0001738  83.5145 276.6256 14.64867469702017
WORLDVIEW-3 (WV-3)      
1 40115U 14048A   26179.95885451  .00000770  00000+0  96465-4 0  9995
2 40115  97.8565 254.6291 0000057  71.3729 288.7492 14.85040131643654
UMBRA-07                
1 58297U 23174AT  26179.70830838  .00009912  00000+0  62450-3 0  9990
2 58297  97.3788 235.0347 0003745  61.3763 298.7843 15.09338512145158
UMBRA-09                
1 60541U 24149CB  26179.20619249  .00014350  00000+0  70114-3 0  9992
2 60541  97.6974 266.6018 0001231 237.4593 122.6522 15.18357877102396
UMBRA-10                
1 60547U 24149CH  26179.79886295  .00015507  00000+0  75678-3 0  9994
2 60547  97.6983 267.2335 0000482 179.7199 180.4035 15.18382548102493
UMBRA-11                
1 66748U 25276CL  26179.92150317  .00017076  00000+0  64290-3 0  9990
2 66748  97.4201 254.4814 0001096 242.2657 117.8471 15.27176006 32287
UMBRA-12                
1 67371U 26004J   26179.93160587  .00004314  00000+0  45946-3 0  9992
2 67371  97.8006 178.5386 0007957  94.3428 265.8699 14.89409228 25056
