{
 "generated_at": "2026-06-29T09:26:28Z",
 "sources": [
  {
   "name": "CelesTrak",
   "url": "https://celestrak.org/NORAD/elements/",
   "license": "frei verfügbar; Attribution. Ursprünglich USSPACECOM/Space-Track."
  },
  {
   "name": "GCAT (J. McDowell, planet4589.org)",
   "url": "https://planet4589.org/space/gcat/",
   "license": "CC-BY 4.0"
  }
 ],
 "satellites": [
  {
   "norad": 58297,
   "name": "UMBRA-07",
   "intl": "2023-174AT",
   "group": "sar",
   "gcat": {
    "class": "B",
    "category": "IMG-R",
    "owner": "UMBRA",
    "state": "US"
   },
   "omm": {
    "OBJECT_NAME": "UMBRA-07",
    "OBJECT_ID": "2023-174AT",
    "EPOCH": "2026-06-28T16:59:57.844032",
    "MEAN_MOTION": 15.09338512,
    "ECCENTRICITY": 0.00037456,
    "INCLINATION": 97.3788,
    "RA_OF_ASC_NODE": 235.0347,
    "ARG_OF_PERICENTER": 61.3763,
    "MEAN_ANOMALY": 298.7843,
    "EPHEMERIS_TYPE": 0,
    "CLASSIFICATION_TYPE": "U",
    "NORAD_CAT_ID": 58297,
    "ELEMENT_SET_NO": 999,
    "REV_AT_EPOCH": 14515,
    "BSTAR": 0.00062450333,
    "MEAN_MOTION_DOT": 0.00009912,
    "MEAN_MOTION_DDOT": 0
   }
  },
  {
   "norad": 60541,
   "name": "UMBRA-09",
   "intl": "2024-149CB",
   "group": "sar",
   "gcat": {
    "class": "B",
    "category": "IMG-R",
    "owner": "UMBRA",
    "state": "US"
   },
   "omm": {
    "OBJECT_NAME": "UMBRA-09",
    "OBJECT_ID": "2024-149CB",
    "EPOCH": "2026-06-28T04:56:55.031136",
    "MEAN_MOTION": 15.18357877,
    "ECCENTRICITY": 0.00012315,
    "INCLINATION": 97.6974,
    "RA_OF_ASC_NODE": 266.6018,
    "ARG_OF_PERICENTER": 237.4593,
    "MEAN_ANOMALY": 122.6522,
    "EPHEMERIS_TYPE": 0,
    "CLASSIFICATION_TYPE": "U",
    "NORAD_CAT_ID": 60541,
    "ELEMENT_SET_NO": 999,
    "REV_AT_EPOCH": 10239,
    "BSTAR": 0.0007011386,
    "MEAN_MOTION_DOT": 0.0001435,
    "MEAN_MOTION_DDOT": 0
   }
  },
  {
   "norad": 60547,
   "name": "UMBRA-10",
   "intl": "2024-149CH",
   "group": "sar",
   "gcat": {
    "class": "B",
    "category": "IMG-R",
    "owner": "UMBRA",
    "state": "US"
   },
   "omm": {
    "OBJECT_NAME": "UMBRA-10",
    "OBJECT_ID": "2024-149CH",
    "EPOCH": "2026-06-28T19:10:21.758880",
    "MEAN_MOTION": 15.18382548,
    "ECCENTRICITY": 0.00004828,
    "INCLINATION": 97.6983,
    "RA_OF_ASC_NODE": 267.2335,
    "ARG_OF_PERICENTER": 179.7199,
    "MEAN_ANOMALY": 180.4035,
    "EPHEMERIS_TYPE": 0,
    "CLASSIFICATION_TYPE": "U",
    "NORAD_CAT_ID": 60547,
    "ELEMENT_SET_NO": 999,
    "REV_AT_EPOCH": 10249,
    "BSTAR": 0.0007567832,
    "MEAN_MOTION_DOT": 0.00015507,
    "MEAN_MOTION_DDOT": 0
   }
  },
  {
   "norad": 66748,
   "name": "UMBRA-11",
   "intl": "2025-276CL",
   "group": "sar",
   "gcat": {
    "class": "B",
    "category": "IMG-R",
    "owner": "UMBRA",
    "state": "US"
   },
   "omm": {
    "OBJECT_NAME": "UMBRA-11",
    "OBJECT_ID": "2025-276CL",
    "EPOCH": "2026-06-28T22:06:57.873888",
    "MEAN_MOTION": 15.27176006,
    "ECCENTRICITY": 0.00010967,
    "INCLINATION": 97.4201,
    "RA_OF_ASC_NODE": 254.4814,
    "ARG_OF_PERICENTER": 242.2657,
    "MEAN_ANOMALY": 117.8471,
    "EPHEMERIS_TYPE": 0,
    "CLASSIFICATION_TYPE": "U",
    "NORAD_CAT_ID": 66748,
    "ELEMENT_SET_NO": 999,
    "REV_AT_EPOCH": 3228,
    "BSTAR": 0.00064289667,
    "MEAN_MOTION_DOT": 0.00017076,
    "MEAN_MOTION_DDOT": 0
   }
  },
  {
   "norad": 67371,
   "name": "UMBRA-12",
   "intl": "2026-004J",
   "group": "sar",
   "gcat": {
    "class": "B",
    "category": "IMG-R",
    "owner": "UMBRA",
    "state": "US"
   },
   "omm": {
    "OBJECT_NAME": "UMBRA-12",
    "OBJECT_ID": "2026-004J",
    "EPOCH": "2026-06-28T22:21:30.747168",
    "MEAN_MOTION": 14.89409228,
    "ECCENTRICITY": 0.00079572,
    "INCLINATION": 97.8006,
    "RA_OF_ASC_NODE": 178.5386,
    "ARG_OF_PERICENTER": 94.3428,
    "MEAN_ANOMALY": 265.8699,
    "EPHEMERIS_TYPE": 0,
    "CLASSIFICATION_TYPE": "U",
    "NORAD_CAT_ID": 67371,
    "ELEMENT_SET_NO": 999,
    "REV_AT_EPOCH": 2505,
    "BSTAR": 0.00045945708,
    "MEAN_MOTION_DOT": 0.00004314,
    "MEAN_MOTION_DDOT": 0
   }
  },
  {
   "norad": 39160,
   "name": "VNREDSAT 1",
   "intl": "2013-021B",
   "group": "resource",
   "gcat": {
    "class": "C",
    "category": "IMG",
    "owner": "VAST",
    "state": "VN"
   },
   "omm": {
    "OBJECT_NAME": "VNREDSAT 1",
    "OBJECT_ID": "2013-021B",
    "EPOCH": "2026-06-28T23:23:08.432160",
    "MEAN_MOTION": 14.64867469,
    "ECCENTRICITY": 0.0001738,
    "INCLINATION": 97.9081,
    "RA_OF_ASC_NODE": 232.9381,
    "ARG_OF_PERICENTER": 83.5145,
    "MEAN_ANOMALY": 276.6256,
    "EPHEMERIS_TYPE": 0,
    "CLASSIFICATION_TYPE": "U",
    "NORAD_CAT_ID": 39160,
    "ELEMENT_SET_NO": 999,
    "REV_AT_EPOCH": 70201,
    "BSTAR": 0.000060325775,
    "MEAN_MOTION_DOT": 0.00000277,
    "MEAN_MOTION_DDOT": 0
   }
  },
  {
   "norad": 32060,
   "name": "WORLDVIEW-1 (WV-1)",
   "intl": "2007-041A",
   "group": "resource",
   "gcat": {
    "class": "B",
    "category": "IMG",
    "owner": "DGLO",
    "state": "US"
   },
   "omm": {
    "OBJECT_NAME": "WORLDVIEW-1 (WV-1)",
    "OBJECT_ID": "2007-041A",
    "EPOCH": "2026-06-28T21:52:09.090912",
    "MEAN_MOTION": 15.2439197,
    "ECCENTRICITY": 0.00011833,
    "INCLINATION": 97.389,
    "RA_OF_ASC_NODE": 299.4873,
    "ARG_OF_PERICENTER": 331.1223,
    "MEAN_ANOMALY": 28.9949,
    "EPHEMERIS_TYPE": 0,
    "CLASSIFICATION_TYPE": "U",
    "NORAD_CAT_ID": 32060,
    "ELEMENT_SET_NO": 999,
    "REV_AT_EPOCH": 4466,
    "BSTAR": 0.00022049635,
    "MEAN_MOTION_DOT": 0.00005332,
    "MEAN_MOTION_DDOT": 0
   }
  },
  {
   "norad": 35946,
   "name": "WORLDVIEW-2 (WV-2)",
   "intl": "2009-055A",
   "group": "resource",
   "gcat": {
    "class": "B",
    "category": "IMG",
    "owner": "DGLO",
    "state": "US"
   },
   "omm": {
    "OBJECT_NAME": "WORLDVIEW-2 (WV-2)",
    "OBJECT_ID": "2009-055A",
    "EPOCH": "2026-06-28T22:10:19.004448",
    "MEAN_MOTION": 14.37902569,
    "ECCENTRICITY": 0.00044576,
    "INCLINATION": 98.4764,
    "RA_OF_ASC_NODE": 253.2124,
    "ARG_OF_PERICENTER": 171.852,
    "MEAN_ANOMALY": 188.2741,
    "EPHEMERIS_TYPE": 0,
    "CLASSIFICATION_TYPE": "U",
    "NORAD_CAT_ID": 35946,
    "ELEMENT_SET_NO": 999,
    "REV_AT_EPOCH": 87733,
    "BSTAR": 0.000050226778,
    "MEAN_MOTION_DOT": 0.00000108,
    "MEAN_MOTION_DDOT": 0
   }
  },
  {
   "norad": 40115,
   "name": "WORLDVIEW-3 (WV-3)",
   "intl": "2014-048A",
   "group": "resource",
   "gcat": {
    "class": "B",
    "category": "IMG",
    "owner": "DGLO",
    "state": "US"
   },
   "omm": {
    "OBJECT_NAME": "WORLDVIEW-3 (WV-3)",
    "OBJECT_ID": "2014-048A",
    "EPOCH": "2026-06-28T23:00:45.029664",
    "MEAN_MOTION": 14.85040131,
    "ECCENTRICITY": 0.00000578,
    "INCLINATION": 97.8565,
    "RA_OF_ASC_NODE": 254.6291,
    "ARG_OF_PERICENTER": 71.3729,
    "MEAN_ANOMALY": 288.7492,
    "EPHEMERIS_TYPE": 0,
    "CLASSIFICATION_TYPE": "U",
    "NORAD_CAT_ID": 40115,
    "ELEMENT_SET_NO": 999,
    "REV_AT_EPOCH": 64365,
    "BSTAR": 0.000096464711,
    "MEAN_MOTION_DOT": 0.0000077,
    "MEAN_MOTION_DDOT": 0
   }
  },
  {
   "norad": 36834,
   "name": "YAOGAN-10",
   "intl": "2010-038A",
   "group": "resource",
   "gcat": {
    "class": null,
    "category": null,
    "owner": null,
    "state": null
   },
   "omm": {
    "OBJECT_NAME": "YAOGAN-10",
    "OBJECT_ID": "2010-038A",
    "EPOCH": "2026-06-28T23:59:00.502368",
    "MEAN_MOTION": 14.85381507,
    "ECCENTRICITY": 0.00016631,
    "INCLINATION": 97.8973,
    "RA_OF_ASC_NODE": 203.309,
    "ARG_OF_PERICENTER": 85.5334,
    "MEAN_ANOMALY": 303.789,
    "EPHEMERIS_TYPE": 0,
    "CLASSIFICATION_TYPE": "U",
    "NORAD_CAT_ID": 36834,
    "ELEMENT_SET_NO": 999,
    "REV_AT_EPOCH": 85896,
    "BSTAR": 0.00010135715,
    "MEAN_MOTION_DOT": 0.00000818,
    "MEAN_MOTION_DDOT": 0
   }
  }
 ]
}
